{"type":"FeatureCollection","name":"ECCC_SK_AQHI_Forecasts","features":[{"type":"Feature","geometry":{"type":"Point","coordinates":[-108.417,55.8412]},"properties":{"name":"Buffalo Narrows","source":"ECCC AQHI provincial summary","source_url":"https://weather.gc.ca/airquality/pages/provincial_summary/sk_e.html","issued_at":"6:00 AM CST Friday 4 September 2026","generated_utc":"2026-09-04T21:18:48.516892+00:00","p1_label":"Today","p1_raw":"2 Low Risk","p1_aqhi":2,"p1_category":"Low Risk","p2_label":"Tonight","p2_raw":"2 Low Risk","p2_aqhi":2,"p2_category":"Low Risk","p3_label":"Tomorrow","p3_raw":"2 Low Risk","p3_aqhi":2,"p3_category":"Low Risk","p4_label":"Tomorrow Night","p4_raw":"2 Low Risk","p4_aqhi":2,"p4_category":"Low Risk","lat":55.8412,"lon":-108.417}},{"type":"Feature","geometry":{"type":"Point","coordinates":[-102.989,49.1405]},"properties":{"name":"Estevan","source":"ECCC AQHI provincial summary","source_url":"https://weather.gc.ca/airquality/pages/provincial_summary/sk_e.html","issued_at":"6:00 AM CST Friday 4 September 2026","generated_utc":"2026-09-04T21:18:48.517136+00:00","p1_label":"Today","p1_raw":"2 Low Risk","p1_aqhi":2,"p1_category":"Low Risk","p2_label":"Tonight","p2_raw":"3 Low Risk","p2_aqhi":3,"p2_category":"Low Risk","p3_label":"Tomorrow","p3_raw":"3 Low Risk","p3_aqhi":3,"p3_category":"Low Risk","p4_label":"Tomorrow Night","p4_raw":"3 Low Risk","p4_aqhi":3,"p4_category":"Low Risk","lat":49.1405,"lon":-102.989}},{"type":"Feature","geometry":{"type":"Point","coordinates":[-105.7531,53.2033]},"properties":{"name":"Prince Albert","source":"ECCC AQHI provincial summary","source_url":"https://weather.gc.ca/airquality/pages/provincial_summary/sk_e.html","issued_at":"6:00 AM CST Friday 4 September 2026","generated_utc":"2026-09-04T21:18:48.517243+00:00","p1_label":"Today","p1_raw":"2 Low Risk","p1_aqhi":2,"p1_category":"Low Risk","p2_label":"Tonight","p2_raw":"2 Low Risk","p2_aqhi":2,"p2_category":"Low Risk","p3_label":"Tomorrow","p3_raw":"2 Low Risk","p3_aqhi":2,"p3_category":"Low Risk","p4_label":"Tomorrow Night","p4_raw":"2 Low Risk","p4_aqhi":2,"p4_category":"Low Risk","lat":53.2033,"lon":-105.7531}},{"type":"Feature","geometry":{"type":"Point","coordinates":[-104.6189,50.4452]},"properties":{"name":"Regina","source":"ECCC AQHI provincial summary","source_url":"https://weather.gc.ca/airquality/pages/provincial_summary/sk_e.html","issued_at":"6:00 AM CST Friday 4 September 2026","generated_utc":"2026-09-04T21:18:48.517352+00:00","p1_label":"Today","p1_raw":"2 Low Risk","p1_aqhi":2,"p1_category":"Low Risk","p2_label":"Tonight","p2_raw":"3 Low Risk","p2_aqhi":3,"p2_category":"Low Risk","p3_label":"Tomorrow","p3_raw":"3 Low Risk","p3_aqhi":3,"p3_category":"Low Risk","p4_label":"Tomorrow Night","p4_raw":"3 Low Risk","p4_aqhi":3,"p4_category":"Low Risk","lat":50.4452,"lon":-104.6189}},{"type":"Feature","geometry":{"type":"Point","coordinates":[-106.67,52.1579]},"properties":{"name":"Saskatoon","source":"ECCC AQHI provincial summary","source_url":"https://weather.gc.ca/airquality/pages/provincial_summary/sk_e.html","issued_at":"6:00 AM CST Friday 4 September 2026","generated_utc":"2026-09-04T21:18:48.517458+00:00","p1_label":"Today","p1_raw":"2 Low Risk","p1_aqhi":2,"p1_category":"Low Risk","p2_label":"Tonight","p2_raw":"3 Low Risk","p2_aqhi":3,"p2_category":"Low Risk","p3_label":"Tomorrow","p3_raw":"3 Low Risk","p3_aqhi":3,"p3_category":"Low Risk","p4_label":"Tomorrow Night","p4_raw":"3 Low Risk","p4_aqhi":3,"p4_category":"Low Risk","lat":52.1579,"lon":-106.67}},{"type":"Feature","geometry":{"type":"Point","coordinates":[-107.7972,50.288]},"properties":{"name":"Swift Current","source":"ECCC AQHI provincial summary","source_url":"https://weather.gc.ca/airquality/pages/provincial_summary/sk_e.html","issued_at":"6:00 AM CST Friday 4 September 2026","generated_utc":"2026-09-04T21:18:48.517551+00:00","p1_label":"Today","p1_raw":"3 Low Risk","p1_aqhi":3,"p1_category":"Low Risk","p2_label":"Tonight","p2_raw":"3 Low Risk","p2_aqhi":3,"p2_category":"Low Risk","p3_label":"Tomorrow","p3_raw":"3 Low Risk","p3_aqhi":3,"p3_category":"Low Risk","p4_label":"Tomorrow Night","p4_raw":"3 Low Risk","p4_aqhi":3,"p4_category":"Low Risk","lat":50.288,"lon":-107.7972}}]}