{"type": "FeatureCollection", "features": [{"type": "Feature", "geometry": {"type": "Point", "coordinates": [-108.40387034522, 55.8347917730994]}, "properties": {"station": "Buffalo Narrows", "AQHI": 2.0, "PM25": 1.3, "NO2": 0.1, "O3": 27.8, "WS": 19.0, "WD": 221.0, "TEMP": 10.7, "RH": 56.9, "AQHI_lag1": 2.0, "AQHI_lag2": 2.0, "AQHI_lag3": 2.0, "AQHI_lag6": 2.0, "AQHI_change_1h": 0.0, "AQHI_change_3h": 0.0, "sin_hour": 1.0, "cos_hour": 6.123233995736766e-17, "sin_doy": -0.9988797155850335, "cos_doy": -0.04732138832243232, "updated": "2026-09-28T06:00:00+00:00"}}, {"type": "Feature", "geometry": {"type": "Point", "coordinates": [-102.985002018981, 49.1323647672702]}, "properties": {"station": "Estevan", "AQHI": 2.0, "PM25": 4.5, "NO2": 9.0, "O3": 15.2, "WS": 6.0, "WD": 97.0, "TEMP": 11.6, "RH": 57.1, "AQHI_lag1": 2.0, "AQHI_lag2": 2.0, "AQHI_lag3": 2.0, "AQHI_lag6": 2.0, "AQHI_change_1h": 0.0, "AQHI_change_3h": 0.0, "sin_hour": 1.0, "cos_hour": 6.123233995736766e-17, "sin_doy": -0.9988797155850335, "cos_doy": -0.04732138832243232, "updated": "2026-09-28T06:00:00+00:00"}}, {"type": "Feature", "geometry": {"type": "Point", "coordinates": [-104.617125744561, 50.4502077461615]}, "properties": {"station": "Regina", "AQHI": 2.0, "PM25": 7.8, "NO2": 5.4, "O3": 20.2, "WS": 10.0, "WD": 171.0, "TEMP": 9.7, "RH": 48.6, "AQHI_lag1": 2.0, "AQHI_lag2": 2.0, "AQHI_lag3": 2.0, "AQHI_lag6": 2.0, "AQHI_change_1h": 0.0, "AQHI_change_3h": 0.0, "sin_hour": 1.0, "cos_hour": 6.123233995736766e-17, "sin_doy": -0.9988797155850335, "cos_doy": -0.04732138832243232, "updated": "2026-09-28T06:00:00+00:00"}}, {"type": "Feature", "geometry": {"type": "Point", "coordinates": [-106.662942708646, 52.1361376913645]}, "properties": {"station": "Saskatoon", "AQHI": 2.0, "PM25": 2.8, "NO2": 3.4, "O3": 21.6, "WS": 8.0, "WD": 177.0, "TEMP": 10.0, "RH": 47.5, "AQHI_lag1": 2.0, "AQHI_lag2": 2.0, "AQHI_lag3": 2.0, "AQHI_lag6": 2.0, "AQHI_change_1h": 0.0, "AQHI_change_3h": 0.0, "sin_hour": 1.0, "cos_hour": 6.123233995736766e-17, "sin_doy": -0.9988797155850335, "cos_doy": -0.04732138832243232, "updated": "2026-09-28T06:00:00+00:00"}}, {"type": "Feature", "geometry": {"type": "Point", "coordinates": [-107.816680514048, 50.2858504122844]}, "properties": {"station": "Swift Current", "AQHI": 1.0, "PM25": 2.4, "NO2": 1.2, "O3": 23.5, "WS": 7.0, "WD": 164.0, "TEMP": 8.4, "RH": 60.7, "AQHI_lag1": 2.0, "AQHI_lag2": 2.0, "AQHI_lag3": 2.0, "AQHI_lag6": 2.0, "AQHI_change_1h": -1.0, "AQHI_change_3h": -1.0, "sin_hour": 1.0, "cos_hour": 6.123233995736766e-17, "sin_doy": -0.9988797155850335, "cos_doy": -0.04732138832243232, "updated": "2026-09-28T06:00:00+00:00"}}]}