{
  "type": "FeatureCollection",
  "features": [
    {
      "type": "Feature",
      "geometry": {
        "type": "Point",
        "coordinates": [
          -108.4307,
          54.1252
        ]
      },
      "properties": {
        "station_name": "Meadow Lake",
        "network": "WYAMZ",
        "province": "SK",
        "reading_date": "2026-09-29T18:00:00+00:00",
        "NO": 0.5,
        "NO2": 0.9,
        "NOX": 1.3,
        "O3": 30.6,
        "PM2.5": 10.0,
        "TEMP": 13.4,
        "WS": 0.8,
        "WD": 242.2,
        "RH": 49.8,
        "AP": 939.4,
        "AQI": 15.0,
        "AQHI_calc": 2.14,
        "aqhi_display": 2,
        "aqhi_color": "#0099cb",
        "aqhi_category": "Low"
      }
    },
    {
      "type": "Feature",
      "geometry": {
        "type": "Point",
        "coordinates": [
          -106.4,
          52.2667
        ]
      },
      "properties": {
        "station_name": "Clavet",
        "network": "WYAMZ",
        "province": "SK",
        "reading_date": "2026-09-29T18:00:00+00:00",
        "NO": 1.0,
        "NO2": 1.4,
        "NOX": 2.4,
        "PM2.5": 11.0,
        "TEMP": 15.5,
        "WS": 4.1,
        "WD": 231.7,
        "RH": 39.5,
        "AP": 935.1,
        "aqhi_display": null,
        "aqhi_color": "#D3D3D3",
        "aqhi_category": null
      }
    },
    {
      "type": "Feature",
      "geometry": {
        "type": "Point",
        "coordinates": [
          -109.1667,
          51.4667
        ]
      },
      "properties": {
        "station_name": "Kerrobert",
        "network": "WYAMZ",
        "province": "SK",
        "reading_date": "2026-09-29T18:00:00+00:00",
        "NO": 0.3,
        "NO2": 0.7,
        "NOX": 2.0,
        "O3": 15.1,
        "PM2.5": 4.5,
        "TEMP": 320.6,
        "WS": 40.1,
        "WD": 918.2,
        "RH": 4.0,
        "AQHI_calc": 1.05,
        "aqhi_display": 1,
        "aqhi_color": "#01cbff",
        "aqhi_category": "Low"
      }
    },
    {
      "type": "Feature",
      "geometry": {
        "type": "Point",
        "coordinates": [
          -102.0839,
          50.6497
        ]
      },
      "properties": {
        "station_name": "Esterhazy",
        "network": "SESAA",
        "province": "SK",
        "reading_date": "2026-09-29T17:00:00+00:00",
        "NO": 0.7,
        "NO2": 2.5,
        "NOX": 3.1,
        "PM2.5": 9.7,
        "TEMP": 16.4,
        "WS": 2.0,
        "WD": 138.4,
        "RH": 62.2,
        "AP": 940.3,
        "aqhi_display": null,
        "aqhi_color": "#D3D3D3",
        "aqhi_category": null
      }
    },
    {
      "type": "Feature",
      "geometry": {
        "type": "Point",
        "coordinates": [
          -102.1667,
          49.2333
        ]
      },
      "properties": {
        "station_name": "Oxbow",
        "network": "SESAA",
        "province": "SK",
        "reading_date": "2026-09-29T17:00:00+00:00",
        "NO": 0.3,
        "NO2": 6.8,
        "NOX": 7.1,
        "O3": 0.6,
        "PM2.5": 1.7,
        "TEMP": 4.4,
        "WS": 16.4,
        "WD": 4.3,
        "RH": 176.7,
        "AP": 69.9,
        "AQI": 936.7,
        "AQHI_calc": 0.68,
        "aqhi_display": 1,
        "aqhi_color": "#01cbff",
        "aqhi_category": "Low"
      }
    },
    {
      "type": "Feature",
      "geometry": {
        "type": "Point",
        "coordinates": [
          -103.05,
          49.6667
        ]
      },
      "properties": {
        "station_name": "Stoughton",
        "network": "SESAA",
        "province": "SK",
        "reading_date": "2026-09-29T17:00:00+00:00",
        "NO": 0.4,
        "NO2": 1.2,
        "NOX": 1.6,
        "O3": 0.3,
        "PM2.5": -0.9,
        "TEMP": 4.0,
        "WS": 16.3,
        "WD": 2.5,
        "RH": 329.0,
        "AP": 66.4,
        "AQI": 930.3,
        "AQHI_calc": 0.07,
        "aqhi_display": 1,
        "aqhi_color": "#01cbff",
        "aqhi_category": "Low"
      }
    },
    {
      "type": "Feature",
      "geometry": {
        "type": "Point",
        "coordinates": [
          -103.5333,
          49.1333
        ]
      },
      "properties": {
        "station_name": "Torquay",
        "network": "SESAA",
        "province": "SK",
        "reading_date": "2026-09-29T17:00:00+00:00",
        "NO": 0.3,
        "NO2": -0.8,
        "NOX": 1.3,
        "O3": 16.7,
        "PM2.5": 5.3,
        "TEMP": 225.9,
        "WS": 58.7,
        "WD": 934.8,
        "RH": 1.0,
        "AQHI_calc": 1.05,
        "aqhi_display": 1,
        "aqhi_color": "#01cbff",
        "aqhi_category": "Low"
      }
    },
    {
      "type": "Feature",
      "geometry": {
        "type": "Point",
        "coordinates": [
          -101.9667,
          49.6667
        ]
      },
      "properties": {
        "station_name": "Wauchope",
        "network": "SESAA",
        "province": "SK",
        "reading_date": "2026-09-29T17:00:00+00:00",
        "NOX": 3.4,
        "aqhi_display": null,
        "aqhi_color": "#D3D3D3",
        "aqhi_category": null
      }
    },
    {
      "type": "Feature",
      "geometry": {
        "type": "Point",
        "coordinates": [
          -104.50604,
          50.453414
        ]
      },
      "properties": {
        "station_name": "East Regina",
        "network": "GPAZ",
        "province": "SK",
        "reading_date": "2026-09-29T18:00:00+00:00",
        "NO": 0.4,
        "NO2": 1.9,
        "NOX": 2.3,
        "SO2": 0.0,
        "H2S": 0.0,
        "O3": 26.7,
        "PM2.5": 0.0,
        "TEMP": 15.2,
        "WS": 14.04,
        "WD": 231.0,
        "RH": 41.1,
        "AP": 0.0,
        "PRE": 0.0,
        "AQHI_calc": 1.55,
        "aqhi_display": 2,
        "aqhi_color": "#0099cb",
        "aqhi_category": "Low"
      }
    }
  ]
}